1 41061U 00055U   18204.21145823 +.00000102 +00000-0 +74749-4 0  9991
2 41061 098.8562 283.0664 0020799 267.0495 092.8298 14.15744875137309
1 41018U 99025EXY 18140.02163466  .00000391  00000-0  52790-3 0  9990
2 41018  99.8657  72.6287 0327944  76.4957 287.2488 13.45429690509533
1 41146U 00055CD  18203.99270874 +.00000727 +00000-0 +41834-3 0  9995
2 41146 098.8873 276.4929 0034240 137.6764 222.7058 14.12040742136132
1 41225U 00055EE  18204.46926658 +.00001315 +00000-0 +64988-3 0  9993
2 41225 098.9239 290.8709 0040973 270.0911 089.5569 14.18742183135341
1 41093U 00055BC  18205.15181378 +.00001763 +00000-0 +59254-3 0  9992
2 41093 098.8763 312.5718 0095507 147.2696 213.4455 14.35915985138510
1 41208U 00055DM  18205.12522693 -.00000025 +00000-0 +10748-4 0  9993
2 41208 098.8283 262.3876 0040985 120.1035 240.4205 14.04496889133374
1 41262U 00055FN  18205.36552516 +.00000609 +00000-0 +44078-3 0  9995
2 41262 098.8723 254.4843 0068035 130.0477 230.6682 13.99118443134062
1 41002U 99025EXG 18202.42949669  .00000584  00000-0  47638-3 0  9992
2 41002  98.1700  63.5857 0147616 104.6241 257.1338 13.88009711374192
1 41077U 00055AL  18205.17250062 -.00000085 +00000-0 -31692-4 0  9998
2 41077 099.1192 273.9493 0117495 144.5281 216.3764 13.91142720134862
1 41058U 00055R   18205.13073878 +.00000104 +00000-0 +87243-4 0  9994
2 41058 098.8208 268.4532 0026961 042.3578 317.9666 14.07340853136630
1 41162U 00055CV  18205.45385921 +.00000340 +00000-0 +21872-3 0  9997
2 41162 098.8623 272.9969 0038959 131.3669 229.0863 14.09324583135849
1 41133U 00055BQ  18202.45001469 -.00000998  00000-0 -49880-3 0  9994
2 41133  98.9524 283.7861 0017500 152.6784 207.5313 14.14230914135067
1 41246U 00055EW  18205.55288294 +.00001391 +00000-0 +56223-3 0  9991
2 41246 098.9465 308.8739 0070211 156.8074 203.6301 14.28178216132832
1 40871U 12035E   18201.01673580 -.00000300  00000-0  00000+0 0  9996
2 40871   3.0810  88.2052 0029835 213.3384 105.4941  1.01518394 21863
1 41136U 00055BT  18205.53828411 +.00001943 +00000-0 +84778-3 0  9997
2 41136 099.0992 318.2596 0045695 192.4521 167.5532 14.24598049137288
1 40989U 15034E   18204.06784553 -.00000173 +00000-0 +00000-0 0  9998
2 40989 001.3208 207.5306 0029499 096.9425 263.0995 01.01536554011036
1 41064U 00055X   18205.43946103 +.00000676 +00000-0 +36378-3 0  9990
2 41064 098.8724 283.9845 0018949 274.5012 085.3997 14.16138188137458
1 41040U 15064C   18203.19776347  .00001204  00000-0  33951-4 0  9995
2 41040  97.3728 340.3717 0014886 325.4035  34.6240 15.38359998150309
1 41149U 00055CG  18204.05913739 +.00001182 +00000-0 +47516-3 0  9999
2 41149 098.8973 303.8686 0075920 195.9561 163.9227 14.28534793137959
1 41228U 00055EH  18200.98528314 +.00000620 +00000-0 +36587-3 0  9998
2 41228 098.8799 273.8492 0021670 010.1557 350.0048 14.11469169133749
1 41096U 00055BF  18205.12576147 +.00001788 +00000-0 +42857-3 0  9992
2 41096 098.8663 330.7326 0139323 082.5219 279.1778 14.49084889139597
1 41211U 00055DQ  18203.63292392 +.00000361 +00000-0 +23583-3 0  9993
2 41211 098.8766 272.0846 0028824 030.7829 329.5024 14.08354269134877
1 41265U 00055FR  18202.92308584 +.00001030 +00000-0 +64943-3 0  9993
2 41265 098.7737 255.6793 0037840 113.2154 247.3007 14.06046687132558
1 41005U 99025EXK 18204.57367167 +.00000490 +00000-0 +31728-3 0  9999
2 41005 099.0200 125.7910 0624044 057.3612 308.6172 13.38110855161898
1 41080U 00055AP  18205.43386492 -.00000884 +00000-0 -44540-3 0  9990
2 41080 098.8247 278.4784 0005336 205.8679 154.2228 14.13608600136561
1 41165U 00055CY  18204.97842507 +.00000297 +00000-0 +19435-3 0  9997
2 41165 098.7640 261.7656 0025346 029.0082 331.2491 14.09295834135790
1 41249U 00055EZ  18203.05361502 +.00000959 +00000-0 +43326-3 0  9990
2 41249 098.9020 296.5499 0049738 194.0872 165.8921 14.23847164132138
1 41198U 00055DB  18205.03585721 +.00000759 +00000-0 +48658-3 0  9995
2 41198 098.9397 272.1318 0038296 088.0155 272.5398 14.05972868133484
1 41252U 00055FC  18202.98264731 +.00000157 +00000-0 +13234-3 0  9996
2 41252 098.9380 262.9806 0070501 133.8834 226.8183 14.00336378134002
1 40992U 97051ABE 18204.34333656 +.00001921 +00000-0 +40269-3 0  9991
2 40992 086.3054 060.7066 0021947 246.0372 238.9220 14.59076807339798
1 41067U 00055AA  18205.44590148 +.00000149 +00000-0 +10446-3 0  9991
2 41067 098.8351 277.8845 0003949 204.0809 156.0178 14.12483095137098
1 41045U 00055C   18205.13798685 -.00000054 +00000-0 -52899-5 0  9996
2 41045 098.7852 276.3041 0012494 259.5191 100.4574 14.14135834137343
1 41152U 00055CK  18205.45435596 +.00000601 +00000-0 +32627-3 0  9990
2 41152 098.8710 284.9377 0014674 206.5753 153.4669 14.16132636136678
1 41231U 00055EL  18205.24336192 +.00000938 +00000-0 +39446-3 0  9996
2 41231 098.8917 302.6796 0065068 186.7602 173.2707 14.27100048135871
1 41126U 00055BH  18203.96699146 -.00000040 +00000-0 +12186-5 0  9996
2 41126 098.8641 256.4131 0079790 153.1860 207.3462 13.99276085134428
1 41214U 00055DT  18203.44990970 +.00000589 +00000-0 +29828-3 0  9992
2 41214 098.8226 283.2562 0036251 190.7237 169.3170 14.19598049135548
1 41268U 00055FU  18205.43809999 +.00000419 +00000-0 +28029-3 0  9996
2 41268 098.9777 279.8529 0034887 126.1300 234.3105 14.06131973132947
1 41008U 99025EXN 18180.91814593 +.00000081 +00000-0 +77339-4 0  9998
2 41008 099.4407 069.7495 0521230 284.3968 069.9881 13.55944106195094
1 41083U 00055AS  18204.01406259 +.00000110 +00000-0 +14133-3 0  9995
2 41083 098.8921 222.3007 0207187 269.7736 087.9672 13.72996394132947
1 41086U 00055AV  18205.01433331 +.00000769 +00000-0 +34680-3 0  9999
2 41086 098.7883 288.2193 0051743 190.1091 169.9052 14.24387595137920
1 41201U 00055DE  18205.12786210 +.00000255 +00000-0 +19362-3 0  9997
2 41201 098.9395 269.6179 0049780 128.6702 231.8933 14.01914949134758
1 41255U 00055FF  18203.48292799 +.00000726 +00000-0 +33549-3 0  9993
2 41255 098.7765 284.1925 0049118 188.8827 171.1487 14.23380440136184
1 40995U 97051ABH 18202.05111203 +.00000710 +00000-0 +19277-3 0  9992
2 40995 086.3927 117.4849 0043671 016.9738 043.8635 14.45634270116882
1 41070U 00055AD  18205.41606077 +.00002323 +00000-0 +18442-3 0  9991
2 41070 098.8346 016.3855 0238587 281.8334 075.6209 14.82094083143266
1 41051U 00055J   18205.44602337 +.00000546 +00000-0 +30410-3 0  9992
2 41051 098.8693 283.2583 0017794 282.4955 077.4227 14.15099536137407
1 41155U 00055CN  18203.00941286 +.00000516 +00000-0 +28834-3 0  9990
2 41155 098.8964 283.5411 0024323 183.8375 176.2615 14.15124015136232
1 41234U 00055EP  18205.52169582 +.00001502 +00000-0 +49220-3 0  9996
2 41234 098.8522 312.1417 0104986 128.9720 232.0876 14.36865106137027
1 41129U 00055BL  18205.53775522 +.00001840 +00000-0 +62820-3 0  9993
2 41129 098.8732 311.1665 0093139 135.1229 225.7535 14.35209624137946
1 41217U 00055DW  18204.38001606 +.00000660 +00000-0 +43514-3 0  9996
2 41217 098.8599 264.6197 0049959 129.6564 230.9026 14.04541053133027
1 41011U 99025EXR 18192.55748631  .00000134  00000-0  41631-4 0  9999
2 41011  99.1909  50.2925 0364499 308.5536  48.3495 14.27190257183748
1 41139U 00055BW  18202.36598990  .00000496  00000-0  37273-3 0  9994
2 41139  98.9722 260.8721 0079350 133.2627 227.5194 13.97527939134341
1 41142U 00055BZ  18205.49642672 +.00000928 +00000-0 +40379-3 0  9993
2 41142 098.8303 293.5943 0068060 152.1795 208.3051 14.25251162138055
1 41221U 00055EA  18204.24884851 +.00000577 +00000-0 +25729-3 0  9992
2 41221 098.8979 300.1640 0058000 208.5103 151.2900 14.25842068135937
1 41089U 00055AY  18204.45472014 +.00000544 +00000-0 +31432-3 0  9993
2 41089 098.8471 276.5217 0010091 144.8708 215.3131 14.13136437136339
1 41204U 00055DH  18203.41136863 +.00000456 +00000-0 +29111-3 0  9999
2 41204 098.9073 275.0066 0026721 132.2996 228.0444 14.08360376134858
1 41258U 00055FJ  18205.52132387 +.00001143 +00000-0 +49477-3 0  9990
2 41258 098.9503 305.9943 0062839 220.3019 139.3494 14.25316686132746
1 40998U 97051ABL 18204.02175061 +.00000245 +00000-0 +75812-4 0  9997
2 40998 086.3876 114.8188 0007287 326.4588 089.2153 14.37185258682795
1 41073U 00055AG  18204.48964707 +.00000409 +00000-0 +22201-3 0  9998
2 41073 098.8430 284.2906 0022664 214.6114 145.3586 14.17777685137252
1 41054U 00055M   18205.25752570 +.00000119 +00000-0 +67171-4 0  9990
2 41054 098.9395 307.6659 0070778 202.3910 157.4175 14.26392217138527
1 41158U 00055CR  18205.06413521 +.00000597 +00000-0 +32468-3 0  9994
2 41158 098.9160 288.9123 0016682 211.2448 148.7735 14.16086482136614
1 41237U 00055ES  18204.52433850 +.00000912 +00000-0 +41216-3 0  9991
2 41237 098.9408 301.9929 0056014 173.8432 186.3447 14.23805201137071
1 41132U 00055BP  18205.07815120 +.00000754 +00000-0 +34823-3 0  9990
2 41132 098.8157 289.4259 0052230 177.9266 182.2138 14.23232031136400
1 41014U 99025EXU 18203.40288691  .00001287  00000-0  28712-3 0  9998
2 41014  98.9007  62.2055 0072111  71.0022 289.8969 14.57177811231008
1 41060U 00055T   18205.51951308 +.00000534 +00000-0 +21761-3 0  9991
2 41060 098.9209 310.3821 0090311 197.6884 162.1146 14.29434386138811
1 41017U 99025EXX 16048.23031630  .00028021  00000-0  66911-2 0  9993
2 41017  99.1148 202.9380 0018667 122.3422   2.3639 14.53480835177992
1 41145U 00055CC  18205.59597062 +.00001439 +00000-0 +41435-3 0  9991
2 41145 099.0105 336.2802 0126513 138.1124 222.9828 14.41872591139315
1 41224U 00055ED  18205.02457130 +.00000618 +00000-0 +38928-3 0  9999
2 41224 098.9482 275.4681 0036238 047.9799 312.4445 14.07729023134326
1 41092U 00055BB  18204.52437209 +.00002302 +00000-0 +78484-3 0  9994
2 41092 098.8781 310.4147 0086954 151.5607 209.0363 14.35320216138323
1 41207U 00055DL  18205.22174161 +.00001076 +00000-0 +42936-3 0  9995
2 41207 098.8675 303.0366 0073860 174.2045 186.0008 14.29148598136810
1 41261U 00055FM  18205.40445249 +.00000056 +00000-0 +61653-4 0  9998
2 41261 098.8327 263.0007 0043941 120.4422 240.1097 14.04323294133357
1 41001U 99025EXF 18170.20622894 +.00000923 +00000-0 +46435-3 0  9990
2 41001 098.9930 172.4012 0035121 316.5879 108.9193 14.18679548221845
